ONEWEB-0275             
1 48993U 21060AC  26188.06463240 -.00000010  00000+0 -59659-4 0  9992
2 48993  87.9081 224.8279 0001973  96.1703 263.9653 13.16595199242177
ONEWEB-0276             
1 48994U 21060AD  26188.17388207  .00000114  00000+0  26550-3 0  9990
2 48994  87.9082 224.8052 0001903  93.3517 266.7831 13.16593410242200
ONEWEB-0277             
1 48995U 21060AE  26188.03456418  .00000064  00000+0  13282-3 0  9998
2 48995  87.9078 224.8405 0002083  99.5011 260.6355 13.16594865242170
ONEWEB-0278             
1 48996U 21060AF  26188.10105243  .00000077  00000+0  16733-3 0  9992
2 48996  87.9081 224.8191 0002255  91.3886 268.7503 13.16593763242314
ONEWEB-0279             
1 48997U 21060AG  26187.65298575 -.00000010  00000+0 -59590-4 0  9991
2 48997  87.9083 224.9060 0001914 100.4215 259.7132 13.16593929242189
ONEWEB-0280             
1 48998U 21060AH  26187.59202958 -.00000031  00000+0 -11377-3 0  9998
2 48998  87.9082 224.9225 0002395  99.0421 261.0981 13.16594545242114
ONEWEB-0281             
1 48999U 21060AJ  26187.59756753 -.00000022  00000+0 -90038-4 0  9998
2 48999  87.9082 224.9169 0002135  93.8493 266.2882 13.16593108242183
ONEWEB-0282             
1 49000U 21060AK  26188.08363638  .00000054  00000+0  10806-3 0  9990
2 49000  87.9078 224.8280 0002140  99.0693 261.0680 13.16594409242220
ONEWEB-0283             
1 49001U 21060AL  26188.07254267  .00000048  00000+0  92160-4 0  9994
2 49001  87.9078 224.8297 0001969  98.8153 261.3201 13.16593034242231
ONEWEB-0284             
1 49002U 21060AM  26187.61024007  .00000026  00000+0  35284-4 0  9991
2 49002  87.9080 224.9153 0002388  95.6619 264.4784 13.16593553242152
ONEWEB-0285             
1 49075U 21075A   26188.41560457  .00000242  00000+0  63781-3 0  9992
2 49075  87.8964 346.6396 0001811  87.0634 273.0702 13.12444483237866
ONEWEB-0286             
1 49076U 21075B   26188.39766389 -.00000306  00000+0 -88459-3 0  9994
2 49076  87.8952 346.6581 0001817  87.6624 272.4712 13.12442710237215
ONEWEB-0287             
1 49077U 21075C   26188.44160012  .00000018  00000+0  12766-4 0  9999
2 49077  87.9136   1.8356 0002061  80.5509 279.5856 13.17647767236295
ONEWEB-0288             
1 49078U 21075D   26188.37407955 -.00000017  00000+0 -82034-4 0  9998
2 49078  87.8961 346.6408 0002022  89.0690 271.0670 13.12440871237835
ONEWEB-0289             
1 49079U 21075E   26188.48033176 -.00001949  00000+0 -50571-2 0  9995
2 49079  87.9144   1.8462 0002131  99.1235 261.0137 13.17624438236876
ONEWEB-0290             
1 49080U 21075F   26188.45342668  .00000021  00000+0  21812-4 0  9999
2 49080  87.9145   1.8236 0002278  99.5790 260.5599 13.17649620236281
